{"type": "FeatureCollection", "features": [{"type": "Feature", "properties": {"norad_id": 25590, "name": "COSMOS 2361", "group": "musson", "lat": 73.38961955107962, "lon": 10.529046981153462, "alt_km": 1002.0798642148247, "timestamp": "2025-12-10T04:57:29.888019+00:00", "meta": {"OBJECT_NAME": "COSMOS 2361", "OBJECT_ID": "1998-076A", "EPOCH": "2025-12-09T18:56:43.982016", "MEAN_MOTION": 13.73217061, "ECCENTRICITY": 0.0030059, "INCLINATION": 82.9338, "RA_OF_ASC_NODE": 346.2687, "ARG_OF_PERICENTER": 274.1725, "MEAN_ANOMALY": 259.3866, "EPHEMERIS_TYPE": 0, "CLASSIFICATION_TYPE": "U", "NORAD_CAT_ID": 25590, "ELEMENT_SET_NO": 999, "REV_AT_EPOCH": 35070, "BSTAR": 9.2375e-05, "MEAN_MOTION_DOT": 1.01e-06, "MEAN_MOTION_DDOT": 0}, "tle": {"line1": "1 25590U 98076A   25343.78939794  .00000101  00000+0  92375-4 0  9995", "line2": "2 25590  82.9338 346.2687 0030059 274.1725 259.3866 13.73217061350702"}}, "geometry": {"type": "Point", "coordinates": [10.529046981153462, 73.38961955107962]}}, {"type": "Feature", "properties": {"norad_id": 26818, "name": "COSMOS 2378", "group": "musson", "lat": 40.83178806329163, "lon": 175.4449503998538, "alt_km": 974.620774047441, "timestamp": "2025-12-10T04:57:29.888041+00:00", "meta": {"OBJECT_NAME": "COSMOS 2378", "OBJECT_ID": "2001-023A", "EPOCH": "2025-12-09T11:20:25.595808", "MEAN_MOTION": 13.74141611, "ECCENTRICITY": 0.00322219, "INCLINATION": 82.9273, "RA_OF_ASC_NODE": 2.1477, "ARG_OF_PERICENTER": 214.1503, "MEAN_ANOMALY": 255.5383, "EPHEMERIS_TYPE": 0, "CLASSIFICATION_TYPE": "U", "NORAD_CAT_ID": 26818, "ELEMENT_SET_NO": 999, "REV_AT_EPOCH": 22878, "BSTAR": 6.2265285e-05, "MEAN_MOTION_DOT": 7.4e-07, "MEAN_MOTION_DDOT": 0}, "tle": {"line1": "1 26818U 01023A   25343.47251847  .00000074  00000+0  62265-4 0  9991", "line2": "2 26818  82.9273   2.1477 0032221 214.1503 255.5383 13.74141611228782"}}, "geometry": {"type": "Point", "coordinates": [175.4449503998538, 40.83178806329163]}}, {"type": "Feature", "properties": {"norad_id": 27436, "name": "COSMOS 2389", "group": "musson", "lat": -23.704799726686986, "lon": -54.25451831430884, "alt_km": 987.2307563361965, "timestamp": "2025-12-10T04:57:29.888056+00:00", "meta": {"OBJECT_NAME": "COSMOS 2389", "OBJECT_ID": "2002-026A", "EPOCH": "2025-12-09T20:27:51.412032", "MEAN_MOTION": 13.75154194, "ECCENTRICITY": 0.004768, "INCLINATION": 82.95, "RA_OF_ASC_NODE": 309.122, "ARG_OF_PERICENTER": 68.5853, "MEAN_ANOMALY": 317.0736, "EPHEMERIS_TYPE": 0, "CLASSIFICATION_TYPE": "U", "NORAD_CAT_ID": 27436, "ELEMENT_SET_NO": 999, "REV_AT_EPOCH": 18109, "BSTAR": 9.4732e-05, "MEAN_MOTION_DOT": 1.07e-06, "MEAN_MOTION_DDOT": 0}, "tle": {"line1": "1 27436U 02026A   25343.85267838  .00000107  00000+0  94732-4 0  9992", "line2": "2 27436  82.9500 309.1220 0047680  68.5853 317.0736 13.75154194181091"}}, "geometry": {"type": "Point", "coordinates": [-54.25451831430884, -23.704799726686986]}}, {"type": "Feature", "properties": {"norad_id": 27818, "name": "COSMOS 2398", "group": "musson", "lat": -45.103068055267656, "lon": -92.5708424982418, "alt_km": 1020.7186360648511, "timestamp": "2025-12-10T04:57:29.888067+00:00", "meta": {"OBJECT_NAME": "COSMOS 2398", "OBJECT_ID": "2003-023A", "EPOCH": "2025-12-09T14:16:24.424896", "MEAN_MOTION": 13.72385218, "ECCENTRICITY": 0.0032474, "INCLINATION": 82.9483, "RA_OF_ASC_NODE": 275.0158, "ARG_OF_PERICENTER": 120.2105, "MEAN_ANOMALY": 53.1442, "EPHEMERIS_TYPE": 0, "CLASSIFICATION_TYPE": "U", "NORAD_CAT_ID": 27818, "ELEMENT_SET_NO": 999, "REV_AT_EPOCH": 12773, "BSTAR": 9.6723e-05, "MEAN_MOTION_DOT": 1.04e-06, "MEAN_MOTION_DDOT": 0}, "tle": {"line1": "1 27818U 03023A   25343.59472714  .00000104  00000+0  96723-4 0  9995", "line2": "2 27818  82.9483 275.0158 0032474 120.2105  53.1442 13.72385218127730"}}, "geometry": {"type": "Point", "coordinates": [-92.5708424982418, -45.103068055267656]}}, {"type": "Feature", "properties": {"norad_id": 28380, "name": "COSMOS 2407", "group": "musson", "lat": 64.06858493877571, "lon": 20.048705499100368, "alt_km": 952.9030344749599, "timestamp": "2025-12-10T04:57:29.888079+00:00", "meta": {"OBJECT_NAME": "COSMOS 2407", "OBJECT_ID": "2004-028A", "EPOCH": "2025-12-09T14:37:11.798112", "MEAN_MOTION": 13.76313188, "ECCENTRICITY": 0.0040424, "INCLINATION": 82.9611, "RA_OF_ASC_NODE": 215.2104, "ARG_OF_PERICENTER": 63.3371, "MEAN_ANOMALY": 332.8285, "EPHEMERIS_TYPE": 0, "CLASSIFICATION_TYPE": "U", "NORAD_CAT_ID": 28380, "ELEMENT_SET_NO": 999, "REV_AT_EPOCH": 7380, "BSTAR": 8.1837e-05, "MEAN_MOTION_DOT": 9.6e-07, "MEAN_MOTION_DDOT": 0}, "tle": {"line1": "1 28380U 04028A   25343.60916433  .00000096  00000+0  81837-4 0  9999", "line2": "2 28380  82.9611 215.2104 0040424  63.3371 332.8285 13.76313188 73802"}}, "geometry": {"type": "Point", "coordinates": [20.048705499100368, 64.06858493877571]}}, {"type": "Feature", "properties": {"norad_id": 28521, "name": "COSMOS 2414", "group": "musson", "lat": -82.38308782819283, "lon": 118.84326159466556, "alt_km": 960.8502157253797, "timestamp": "2025-12-10T04:57:29.888089+00:00", "meta": {"OBJECT_NAME": "COSMOS 2414", "OBJECT_ID": "2005-002A", "EPOCH": "2025-12-09T12:04:42.141792", "MEAN_MOTION": 13.8790242, "ECCENTRICITY": 0.0040705, "INCLINATION": 82.9495, "RA_OF_ASC_NODE": 187.1073, "ARG_OF_PERICENTER": 148.7649, "MEAN_ANOMALY": 211.5945, "EPHEMERIS_TYPE": 0, "CLASSIFICATION_TYPE": "U", "NORAD_CAT_ID": 28521, "ELEMENT_SET_NO": 999, "REV_AT_EPOCH": 5750, "BSTAR": 8.3686963e-05, "MEAN_MOTION_DOT": 1.16e-06, "MEAN_MOTION_DDOT": 0}, "tle": {"line1": "1 28521U 05002A   25343.50326553  .00000116  00000+0  83687-4 0  9994", "line2": "2 28521  82.9495 187.1073 0040705 148.7649 211.5945 13.87902420 57509"}}, "geometry": {"type": "Point", "coordinates": [118.84326159466556, -82.38308782819283]}}, {"type": "Feature", "properties": {"norad_id": 32052, "name": "COSMOS 2429", "group": "musson", "lat": 16.6968560396996, "lon": 163.05865914709568, "alt_km": 995.3294080749774, "timestamp": "2025-12-10T04:57:29.888100+00:00", "meta": {"OBJECT_NAME": "COSMOS 2429", "OBJECT_ID": "2007-038A", "EPOCH": "2025-12-09T10:42:32.023872", "MEAN_MOTION": 13.75148904, "ECCENTRICITY": 0.00393967, "INCLINATION": 82.9802, "RA_OF_ASC_NODE": 345.737, "ARG_OF_PERICENTER": 46.8383, "MEAN_ANOMALY": 313.6055, "EPHEMERIS_TYPE": 0, "CLASSIFICATION_TYPE": "U", "NORAD_CAT_ID": 32052, "ELEMENT_SET_NO": 999, "REV_AT_EPOCH": 91557, "BSTAR": 7.3832477e-05, "MEAN_MOTION_DOT": 8.6e-07, "MEAN_MOTION_DDOT": 0}, "tle": {"line1": "1 32052U 07038A   25343.44620398  .00000086  00000+0  73832-4 0  9993", "line2": "2 32052  82.9802 345.7370 0039396  46.8383 313.6055 13.75148904915576"}}, "geometry": {"type": "Point", "coordinates": [163.05865914709568, 16.6968560396996]}}, {"type": "Feature", "properties": {"norad_id": 35635, "name": "COSMOS 2454", "group": "musson", "lat": -55.33434458597915, "lon": 160.26523612710105, "alt_km": 946.7341075743179, "timestamp": "2025-12-10T04:57:29.888110+00:00", "meta": {"OBJECT_NAME": "COSMOS 2454", "OBJECT_ID": "2009-039A", "EPOCH": "2025-12-09T18:54:37.394784", "MEAN_MOTION": 13.89927975, "ECCENTRICITY": 0.0020478, "INCLINATION": 82.9555, "RA_OF_ASC_NODE": 170.8826, "ARG_OF_PERICENTER": 81.6227, "MEAN_ANOMALY": 288.9561, "EPHEMERIS_TYPE": 0, "CLASSIFICATION_TYPE": "U", "NORAD_CAT_ID": 35635, "ELEMENT_SET_NO": 999, "REV_AT_EPOCH": 83109, "BSTAR": 5.9146e-05, "MEAN_MOTION_DOT": 8.9e-07, "MEAN_MOTION_DDOT": 0}, "tle": {"line1": "1 35635U 09039A   25343.78793281  .00000089  00000+0  59146-4 0  9990", "line2": "2 35635  82.9555 170.8826 0020478  81.6227 288.9561 13.89927975831097"}}, "geometry": {"type": "Point", "coordinates": [160.26523612710105, -55.33434458597915]}}, {"type": "Feature", "properties": {"norad_id": 36519, "name": "COSMOS 2463", "group": "musson", "lat": 28.918150224483018, "lon": -155.3390979262589, "alt_km": 1013.1759710184497, "timestamp": "2025-12-10T04:57:29.888121+00:00", "meta": {"OBJECT_NAME": "COSMOS 2463", "OBJECT_ID": "2010-017A", "EPOCH": "2025-12-09T12:59:58.877088", "MEAN_MOTION": 13.71648838, "ECCENTRICITY": 0.003486, "INCLINATION": 82.9616, "RA_OF_ASC_NODE": 29.0627, "ARG_OF_PERICENTER": 297.2558, "MEAN_ANOMALY": 172.124, "EPHEMERIS_TYPE": 0, "CLASSIFICATION_TYPE": "U", "NORAD_CAT_ID": 36519, "ELEMENT_SET_NO": 999, "REV_AT_EPOCH": 78193, "BSTAR": 7.571e-05, "MEAN_MOTION_DOT": 8.3e-07, "MEAN_MOTION_DDOT": 0}, "tle": {"line1": "1 36519U 10017A   25343.54165367  .00000083  00000+0  75710-4 0  9991", "line2": "2 36519  82.9616  29.0627 0034860 297.2558 172.1240 13.71648838781937"}}, "geometry": {"type": "Point", "coordinates": [-155.3390979262589, 28.918150224483018]}}]}